start=new Date('2022-04-08T00:00:00.000Z').valueOf();
sats=[{"CENTER_NAME":"EARTH","ARG_OF_PERICENTER":"40.4248","TLE_LINE1":"1 50818U 22001R   22097.91667824 -.00552551  00000-0 -29287-1 0  9994","APOAPSIS":"515.738","TLE_LINE2":"2 50818  53.2167 116.7917 0001998  40.4248 237.5425 15.17183112  3617","RCS_SIZE":"LARGE","MEAN_ANOMALY":"237.5425","OBJECT_ID":"2022-001R","MEAN_MOTION_DOT":"-0.00552551","PERIOD":"94.913","SITE":"AFETR","MEAN_ELEMENT_THEORY":"SGP4","GP_ID":"200702783","MEAN_MOTION":"15.17183112","INCLINATION":"53.2167","BSTAR":"-0.02928700000000","PERIAPSIS":"512.984","EPHEMERIS_TYPE":"0","CLASSIFICATION_TYPE":"U","LAUNCH_DATE":"2022-01-06","NORAD_CAT_ID":"50818","EPOCH":"2022-04-07T22:00:00.999936","COUNTRY_CODE":"US","OBJECT_TYPE":"PAYLOAD","RA_OF_ASC_NODE":"116.7917","MEAN_MOTION_DDOT":"0.0000000000000","REV_AT_EPOCH":"361","OBJECT_NAME":"STARLINK-3336","SEMIMAJOR_AXIS":"6892.496","DECAY_DATE":null,"TIME_SYSTEM":"UTC","ECCENTRICITY":"0.00019980","FILE":"3392478","ELEMENT_SET_NO":"999","REF_FRAME":"TEME"},{"ARG_OF_PERICENTER":"44.7260","CENTER_NAME":"EARTH","TLE_LINE1":"1 50819U 22001S   22097.91667824 -.00589128  00000-0 -29467-1 0  9995","APOAPSIS":"509.064","TLE_LINE2":"2 50819  53.2167 116.7912 0001752  44.7260 145.6256 15.19332834  3623","RCS_SIZE":"LARGE","MEAN_ANOMALY":"145.6256","OBJECT_ID":"2022-001S","PERIOD":"94.778","MEAN_MOTION_DOT":"-0.00589128","SITE":"AFETR","MEAN_ELEMENT_THEORY":"SGP4","GP_ID":"200703029","MEAN_MOTION":"15.19332834","INCLINATION":"53.2167","BSTAR":"-0.02946700000000","PERIAPSIS":"506.651","EPHEMERIS_TYPE":"0","CLASSIFICATION_TYPE":"U","LAUNCH_DATE":"2022-01-06","NORAD_CAT_ID":"50819","EPOCH":"2022-04-07T22:00:00.999936","OBJECT_TYPE":"PAYLOAD","COUNTRY_CODE":"US","RA_OF_ASC_NODE":"116.7912","MEAN_MOTION_DDOT":"0.0000000000000","REV_AT_EPOCH":"362","OBJECT_NAME":"STARLINK-3327","SEMIMAJOR_AXIS":"6885.993","DECAY_DATE":null,"TIME_SYSTEM":"UTC","FILE":"3392478","ECCENTRICITY":"0.00017520","REF_FRAME":"TEME","ELEMENT_SET_NO":"999"},{"SEMIMAJOR_AXIS":"6891.404","DECAY_DATE":null,"OBJECT_NAME":"STARLINK-3339","MEAN_MOTION_DDOT":"0.0000000000000","REV_AT_EPOCH":"361","RA_OF_ASC_NODE":"116.7930","ELEMENT_SET_NO":"999","REF_FRAME":"TEME","TIME_SYSTEM":"UTC","FILE":"3392478","ECCENTRICITY":"0.00019170","MEAN_MOTION":"15.17543613","SITE":"AFETR","MEAN_MOTION_DOT":"-0.00518010","PERIOD":"94.890","GP_ID":"200703284","MEAN_ELEMENT_THEORY":"SGP4","OBJECT_ID":"2022-001T","RCS_SIZE":"LARGE","MEAN_ANOMALY":"292.5237","ARG_OF_PERICENTER":"37.6309","CENTER_NAME":"EARTH","TLE_LINE2":"2 50820  53.2172 116.7930 0001917  37.6309 292.5237 15.17543613  3616","TLE_LINE1":"1 50820U 22001T   22097.91667824 -.00518010  00000-0 -27063-1 0  9999","APOAPSIS":"514.590","NORAD_CAT_ID":"50820","OBJECT_TYPE":"PAYLOAD","COUNTRY_CODE":"US","EPOCH":"2022-04-07T22:00:00.999936","CLASSIFICATION_TYPE":"U","EPHEMERIS_TYPE":"0","LAUNCH_DATE":"2022-01-06","PERIAPSIS":"511.948","BSTAR":"-0.02706300000000","INCLINATION":"53.2172"},{"MEAN_ANOMALY":"3.6218","RCS_SIZE":"LARGE","OBJECT_ID":"2022-001U","CENTER_NAME":"EARTH","ARG_OF_PERICENTER":"35.4755","APOAPSIS":"512.402","TLE_LINE1":"1 50821U 22001U   22097.91667824 -.00719111  00000-0 -37260-1 0  9995","TLE_LINE2":"2 50821  53.2173 116.7926 0001663  35.4755   3.6218 15.18208644  3626","MEAN_MOTION":"15.18208644","PERIOD":"94.849","MEAN_MOTION_DOT":"-0.00719111","SITE":"AFETR","MEAN_ELEMENT_THEORY":"SGP4","GP_ID":"200702033","BSTAR":"-0.03726000000000","PERIAPSIS":"510.111","INCLINATION":"53.2173","NORAD_CAT_ID":"50821","EPOCH":"2022-04-07T22:00:00.999936","OBJECT_TYPE":"PAYLOAD","COUNTRY_CODE":"US","EPHEMERIS_TYPE":"0","CLASSIFICATION_TYPE":"U","LAUNCH_DATE":"2022-01-06","MEAN_MOTION_DDOT":"0.0000000000000","REV_AT_EPOCH":"362","RA_OF_ASC_NODE":"116.7926","SEMIMAJOR_AXIS":"6889.392","DECAY_DATE":null,"OBJECT_NAME":"STARLINK-3346","TIME_SYSTEM":"UTC","ECCENTRICITY":"0.00016630","FILE":"3392478","ELEMENT_SET_NO":"999","REF_FRAME":"TEME"},{"ELEMENT_SET_NO":"999","REF_FRAME":"TEME","TIME_SYSTEM":"UTC","ECCENTRICITY":"0.00017460","FILE":"3392478","SEMIMAJOR_AXIS":"6890.164","DECAY_DATE":null,"OBJECT_NAME":"STARLINK-3343","MEAN_MOTION_DDOT":"0.0000000000000","REV_AT_EPOCH":"363","RA_OF_ASC_NODE":"116.7923","NORAD_CAT_ID":"50822","EPOCH":"2022-04-07T22:00:00.999936","COUNTRY_CODE":"US","OBJECT_TYPE":"PAYLOAD","EPHEMERIS_TYPE":"0","CLASSIFICATION_TYPE":"U","LAUNCH_DATE":"2022-01-06","BSTAR":"-0.03754500000000","PERIAPSIS":"510.826","INCLINATION":"53.2172","MEAN_MOTION":"15.17953186","PERIOD":"94.865","MEAN_MOTION_DOT":"-0.00719270","SITE":"AFETR","MEAN_ELEMENT_THEORY":"SGP4","GP_ID":"200702283","MEAN_ANOMALY":"328.6968","RCS_SIZE":"LARGE","OBJECT_ID":"2022-001V","CENTER_NAME":"EARTH","ARG_OF_PERICENTER":"35.9611","TLE_LINE1":"1 50822U 22001V   22097.91667824 -.00719270  00000-0 -37545-1 0  9998","APOAPSIS":"513.233","TLE_LINE2":"2 50822  53.2172 116.7923 0001746  35.9611 328.6968 15.17953186  3631"},{"PERIAPSIS":"507.361","BSTAR":"-0.02935900000000","INCLINATION":"53.2167","COUNTRY_CODE":"US","OBJECT_TYPE":"PAYLOAD","EPOCH":"2022-04-07T22:00:00.999936","NORAD_CAT_ID":"50823","LAUNCH_DATE":"2022-01-06","CLASSIFICATION_TYPE":"U","EPHEMERIS_TYPE":"0","OBJECT_ID":"2022-001W","RCS_SIZE":"LARGE","MEAN_ANOMALY":"125.1720","TLE_LINE2":"2 50823  53.2167 116.7925 0001852  31.4759 125.1720 15.19075212  3622","TLE_LINE1":"1 50823U 22001W   22097.91667824 -.00583006  00000-0 -29359-1 0  9999","APOAPSIS":"509.912","CENTER_NAME":"EARTH","ARG_OF_PERICENTER":"31.4759","MEAN_MOTION":"15.19075212","GP_ID":"200703530","MEAN_ELEMENT_THEORY":"SGP4","SITE":"AFETR","PERIOD":"94.795","MEAN_MOTION_DOT":"-0.00583006","ECCENTRICITY":"0.00018520","FILE":"3392478","TIME_SYSTEM":"UTC","REF_FRAME":"TEME","ELEMENT_SET_NO":"999","REV_AT_EPOCH":"362","MEAN_MOTION_DDOT":"0.0000000000000","RA_OF_ASC_NODE":"116.7925","DECAY_DATE":null,"SEMIMAJOR_AXIS":"6886.771","OBJECT_NAME":"STARLINK-3334"},{"CLASSIFICATION_TYPE":"U","EPHEMERIS_TYPE":"0","LAUNCH_DATE":"2022-01-06","NORAD_CAT_ID":"50824","COUNTRY_CODE":"US","OBJECT_TYPE":"PAYLOAD","EPOCH":"2022-04-07T22:00:00.999936","INCLINATION":"53.2172","PERIAPSIS":"510.530","BSTAR":"-0.03741700000000","SITE":"AFETR","MEAN_MOTION_DOT":"-0.00719448","PERIOD":"94.857","GP_ID":"200703785","MEAN_ELEMENT_THEORY":"SGP4","MEAN_MOTION":"15.18081100","CENTER_NAME":"EARTH","ARG_OF_PERICENTER":"39.8577","TLE_LINE2":"2 50824  53.2172 116.7925 0001615  39.8577 342.0391 15.18081100  3655","TLE_LINE1":"1 50824U 22001X   22097.91667824 -.00719448  00000-0 -37417-1 0  9995","APOAPSIS":"512.755","OBJECT_ID":"2022-001X","RCS_SIZE":"LARGE","MEAN_ANOMALY":"342.0391","ELEMENT_SET_NO":"999","REF_FRAME":"TEME","TIME_SYSTEM":"UTC","ECCENTRICITY":"0.00016150","FILE":"3392478","OBJECT_NAME":"STARLINK-3340","SEMIMAJOR_AXIS":"6889.777","DECAY_DATE":null,"RA_OF_ASC_NODE":"116.7925","MEAN_MOTION_DDOT":"0.0000000000000","REV_AT_EPOCH":"365"},{"RA_OF_ASC_NODE":"116.7933","REV_AT_EPOCH":"361","MEAN_MOTION_DDOT":"0.0000000000000","OBJECT_NAME":"STARLINK-3332","DECAY_DATE":null,"SEMIMAJOR_AXIS":"6890.960","FILE":"3392478","ECCENTRICITY":"0.00019340","TIME_SYSTEM":"UTC","ELEMENT_SET_NO":"999","REF_FRAME":"TEME","APOAPSIS":"514.158","TLE_LINE1":"1 50825U 22001Y   22097.91667824 -.00542701  00000-0 -28315-1 0  9999","TLE_LINE2":"2 50825  53.2173 116.7933 0001934  38.5249 308.9349 15.17690190  3616","ARG_OF_PERICENTER":"38.5249","CENTER_NAME":"EARTH","RCS_SIZE":"LARGE","MEAN_ANOMALY":"308.9349","OBJECT_ID":"2022-001Y","MEAN_ELEMENT_THEORY":"SGP4","GP_ID":"200702534","MEAN_MOTION_DOT":"-0.00542701","PERIOD":"94.881","SITE":"AFETR","MEAN_MOTION":"15.17690190","INCLINATION":"53.2173","BSTAR":"-0.02831500000000","PERIAPSIS":"511.493","LAUNCH_DATE":"2022-01-06","EPHEMERIS_TYPE":"0","CLASSIFICATION_TYPE":"U","EPOCH":"2022-04-07T22:00:00.999936","COUNTRY_CODE":"US","OBJECT_TYPE":"PAYLOAD","NORAD_CAT_ID":"50825"},{"FILE":"3392478","ECCENTRICITY":"0.00016750","TIME_SYSTEM":"UTC","ELEMENT_SET_NO":"999","REF_FRAME":"TEME","RA_OF_ASC_NODE":"116.7909","REV_AT_EPOCH":"362","MEAN_MOTION_DDOT":"0.0000000000000","OBJECT_NAME":"STARLINK-3337","DECAY_DATE":null,"SEMIMAJOR_AXIS":"6888.539","INCLINATION":"53.2169","BSTAR":"-0.03013400000000","PERIAPSIS":"509.250","LAUNCH_DATE":"2022-01-06","EPHEMERIS_TYPE":"0","CLASSIFICATION_TYPE":"U","EPOCH":"2022-04-07T22:00:00.999936","OBJECT_TYPE":"PAYLOAD","COUNTRY_CODE":"US","NORAD_CAT_ID":"50826","TLE_LINE1":"1 50826U 22001Z   22097.91667824 -.00587955  00000-0 -30134-1 0  9992","APOAPSIS":"511.558","TLE_LINE2":"2 50826  53.2169 116.7909 0001675  32.5287  58.0021 15.18490523  3623","ARG_OF_PERICENTER":"32.5287","CENTER_NAME":"EARTH","MEAN_ANOMALY":"58.0021","RCS_SIZE":"LARGE","OBJECT_ID":"2022-001Z","MEAN_ELEMENT_THEORY":"SGP4","GP_ID":"200702784","PERIOD":"94.831","MEAN_MOTION_DOT":"-0.00587955","SITE":"AFETR","MEAN_MOTION":"15.18490523"},{"MEAN_ELEMENT_THEORY":"SGP4","GP_ID":"200703030","MEAN_MOTION_DOT":"-0.00548749","PERIOD":"94.905","SITE":"AFETR","MEAN_MOTION":"15.17312120","APOAPSIS":"515.300","TLE_LINE1":"1 50827U 22001AA  22097.91667824 -.00548749  00000-0 -28965-1 0  9990","TLE_LINE2":"2 50827  53.2171 116.7922 0001930  39.6208 255.7732 15.17312120  3616","CENTER_NAME":"EARTH","ARG_OF_PERICENTER":"39.6208","MEAN_ANOMALY":"255.7732","RCS_SIZE":"LARGE","OBJECT_ID":"2022-001AA","LAUNCH_DATE":"2022-01-06","EPHEMERIS_TYPE":"0","CLASSIFICATION_TYPE":"U","EPOCH":"2022-04-07T22:00:00.999936","COUNTRY_CODE":"US","OBJECT_TYPE":"PAYLOAD","NORAD_CAT_ID":"50827","INCLINATION":"53.2171","BSTAR":"-0.02896500000000","PERIAPSIS":"512.640","OBJECT_NAME":"STARLINK-3329","DECAY_DATE":null,"SEMIMAJOR_AXIS":"6892.105","RA_OF_ASC_NODE":"116.7922","REV_AT_EPOCH":"361","MEAN_MOTION_DDOT":"0.0000000000000","REF_FRAME":"TEME","ELEMENT_SET_NO":"999","ECCENTRICITY":"0.00019300","FILE":"3392478","TIME_SYSTEM":"UTC"}];
